{
    "links": {
        "self": "http://www.neowsapp.com/rest/v1/neo/3759246?api_key=iIulBulltgU6a56xZRHN4H3l9WmuAYTsLGpBGhQ2"
    },
    "id": "3759246",
    "neo_reference_id": "3759246",
    "name": "(2016 RV17)",
    "designation": "2016 RV17",
    "nasa_jpl_url": "http://ssd.jpl.nasa.gov/sbdb.cgi?sstr=3759246",
    "absolute_magnitude_h": 23.3,
    "estimated_diameter": {
        "kilometers": {
            "estimated_diameter_min": 0.058150704,
            "estimated_diameter_max": 0.130028927
        },
        "meters": {
            "estimated_diameter_min": 58.1507039646,
            "estimated_diameter_max": 130.0289270043
        },
        "miles": {
            "estimated_diameter_min": 0.0361331611,
            "estimated_diameter_max": 0.0807962044
        },
        "feet": {
            "estimated_diameter_min": 190.7831555951,
            "estimated_diameter_max": 426.6041048727
        }
    },
    "is_potentially_hazardous_asteroid": false,
    "close_approach_data": [
        {
            "close_approach_date": "1948-08-02",
            "close_approach_date_full": "1948-Aug-02 09:18",
            "epoch_date_close_approach": -675787320000,
            "relative_velocity": {
                "kilometers_per_second": "5.1878500929",
                "kilometers_per_hour": "18676.2603345964",
                "miles_per_hour": "11604.7018729052"
            },
            "miss_distance": {
                "astronomical": "0.0802841591",
                "lunar": "31.2305378899",
                "kilometers": "12010339.196101117",
                "miles": "7462878.7181727346"
            },
            "orbiting_body": "Mars"
        },
        {
            "close_approach_date": "1965-07-04",
            "close_approach_date_full": "1965-Jul-04 19:23",
            "epoch_date_close_approach": -141799020000,
            "relative_velocity": {
                "kilometers_per_second": "6.1034320293",
                "kilometers_per_hour": "21972.3553053925",
                "miles_per_hour": "13652.7671062868"
            },
            "miss_distance": {
                "astronomical": "0.060481788",
                "lunar": "23.527415532",
                "kilometers": "9047946.65859156",
                "miles": "5622133.351861128"
            },
            "orbiting_body": "Mars"
        },
        {
            "close_approach_date": "2016-08-24",
            "close_approach_date_full": "2016-Aug-24 12:11",
            "epoch_date_close_approach": 1472040660000,
            "relative_velocity": {
                "kilometers_per_second": "3.2180900412",
                "kilometers_per_hour": "11585.1241484392",
                "miles_per_hour": "7198.5456132343"
            },
            "miss_distance": {
                "astronomical": "0.1668735217",
                "lunar": "64.9137999413",
                "kilometers": "24963923.405718779",
                "miles": "15511862.7096819902"
            },
            "orbiting_body": "Earth"
        },
        {
            "close_approach_date": "2019-01-12",
            "close_approach_date_full": "2019-Jan-12 00:47",
            "epoch_date_close_approach": 1547254020000,
            "relative_velocity": {
                "kilometers_per_second": "6.4754888815",
                "kilometers_per_hour": "23311.7599735052",
                "miles_per_hour": "14485.0210790927"
            },
            "miss_distance": {
                "astronomical": "0.0738098238",
                "lunar": "28.7120214582",
                "kilometers": "11041792.425555306",
                "miles": "6861051.6620469828"
            },
            "orbiting_body": "Mars"
        },
        {
            "close_approach_date": "2035-08-18",
            "close_approach_date_full": "2035-Aug-18 20:28",
            "epoch_date_close_approach": 2071081680000,
            "relative_velocity": {
                "kilometers_per_second": "4.3548245313",
                "kilometers_per_hour": "15677.3683128366",
                "miles_per_hour": "9741.3069941623"
            },
            "miss_distance": {
                "astronomical": "0.2248317711",
                "lunar": "87.4595589579",
                "kilometers": "33634354.064887557",
                "miles": "20899418.4970080066"
            },
            "orbiting_body": "Earth"
        }
    ],
    "orbital_data": {
        "orbit_id": "6",
        "orbit_determination_date": "2017-04-06 08:24:06",
        "first_observation_date": "2016-09-05",
        "last_observation_date": "2016-10-23",
        "data_arc_in_days": 48,
        "observations_used": 38,
        "orbit_uncertainty": "6",
        "minimum_orbit_intersection": ".166954",
        "jupiter_tisserand_invariant": "4.227",
        "epoch_osculation": "2459000.5",
        "eccentricity": ".3007192332518793",
        "semi_major_axis": "1.646899150128092",
        "inclination": "5.905292402867247",
        "ascending_node_longitude": "202.6705185279015",
        "orbital_period": "771.9673545839706",
        "perihelion_distance": "1.1516449004584",
        "perihelion_argument": "122.8876267676476",
        "aphelion_distance": "2.142153399797783",
        "perihelion_time": "2459162.981867811073",
        "mean_anomaly": "284.2280491983894",
        "mean_motion": ".4663409635942591",
        "equinox": "J2000",
        "orbit_class": {
            "orbit_class_type": "AMO",
            "orbit_class_description": "Near-Earth asteroid orbits similar to that of 1221 Amor",
            "orbit_class_range": "1.017 AU < q (perihelion) < 1.3 AU"
        }
    },
    "is_sentry_object": false
}